OBJECT_NAME,OBJECT_ID,EPOCH,MEAN_MOTION,ECCENTRICITY,INCLINATION,RA_OF_ASC_NODE,ARG_OF_PERICENTER,MEAN_ANOMALY,EPHEMERIS_TYPE,CLASSIFICATION_TYPE,NORAD_CAT_ID,ELEMENT_SET_NO,REV_AT_EPOCH,BSTAR,MEAN_MOTION_DOT,MEAN_MOTION_DDOT
STARLINK-2178,2021-017AQ,2026-07-15T16:45:03.298176,15.31699599,.0001377,53.1623,341.1015,83.0847,277.0311,0,U,47760,999,29730,.34523E-4,.706E-5,0
STARLINK-2180,2021-017AS,2026-07-15T20:00:01.999008,15.80761244,.0003767,53.1531,311.4488,334.0819,343.6418,0,U,47762,999,586,.36448E-3,.71487E-3,0
STARLINK-2185,2021-017AX,2026-07-15T19:38:14.945856,15.74967437,.000272,53.1525,311.0569,9.3110,350.7960,0,U,47767,999,29775,.48556E-3,.7357E-3,0
STARLINK-2193,2021-017BA,2026-07-15T19:08:04.199712,15.31879590,.0003588,53.1612,327.8497,2.5208,357.5811,0,U,47770,999,29749,.90282E-3,.27916E-3,0
STARLINK-2194,2021-017BB,2026-07-15T12:59:10.426560,15.31700346,.00011654,53.1615,328.9754,74.0982,286.0148,0,U,47771,999,29746,.10437521E-3,.2875E-4,0
STARLINK-2195,2021-017BC,2026-07-15T16:51:52.327008,15.31713505,.0001034,53.1616,341.6766,118.4654,241.6452,0,U,47772,999,29727,-.10681E-3,-.3679E-4,0
STARLINK-2196,2021-017BD,2026-07-14T17:29:03.767712,15.31699872,.00012038,53.1630,345.6416,86.0775,274.0364,0,U,47773,999,29712,.74958695E-4,.1962E-4,0
STARLINK-2209,2021-017BG,2026-07-15T22:00:01.998720,15.83468904,.0004094,53.1514,304.2325,351.6505,55.8556,0,U,47776,999,599,.23975E-3,.53041E-3,0
STARLINK-2211,2021-017BJ,2026-07-15T12:15:28.556352,15.54599956,.00010054,53.1559,316.4414,13.7109,346.3929,0,U,47778,999,29762,.94979281E-3,.63913E-3,0
STARLINK-2213,2021-017BL,2026-07-15T18:34:43.256064,15.31695984,.0001116,53.1620,327.8714,83.1473,276.9655,0,U,47780,999,29752,.12964E-4,.37E-6,0
STARLINK-2257,2021-018A,2026-07-15T17:55:54.408000,15.31661531,.0001263,53.1611,9.8662,265.9671,94.1186,0,U,47787,999,29630,-.12817E-3,-.4335E-4,0
STARLINK-2314,2021-018B,2026-07-15T16:46:38.148096,15.42697942,.0001057,53.1557,339.4991,128.2771,231.8331,0,U,47788,999,29674,.10626E-2,.46955E-3,0
STARLINK-2315,2021-018C,2026-07-15T11:17:42.520128,15.31699213,.00009606,53.1609,4.7619,77.0851,283.0258,0,U,47789,999,29634,.41778442E-4,.932E-5,0
STARLINK-2319,2021-018D,2026-07-15T13:23:41.752032,15.31720710,.0000899,53.1617,341.7345,120.3074,239.8017,0,U,47790,999,29669,-.71872E-4,-.2596E-4,0
STARLINK-2322,2021-018E,2026-07-15T18:55:45.484032,15.31695770,.0001246,53.1612,6.8947,83.0875,277.0268,0,U,47791,999,29636,.26039E-4,.443E-5,0
STARLINK-2334,2021-018F,2026-07-15T18:54:03.247776,15.31697463,.0001035,53.1604,3.1183,87.1368,272.9752,0,U,47792,999,29639,.24875E-4,.407E-5,0
STARLINK-2338,2021-018G,2026-07-15T17:40:13.641600,15.31697322,.0001238,53.1611,3.3560,81.1200,278.9941,0,U,47793,999,29637,.42461E-4,.953E-5,0
STARLINK-2373,2021-018K,2026-07-15T10:24:32.812704,15.36900095,.00005739,53.1574,3.5206,187.2237,172.8758,0,U,47796,999,29635,.98002237E-3,.35656E-3,0
STARLINK-2377,2021-018L,2026-07-15T19:40:21.692064,15.31697853,.0001262,53.1614,19.2158,74.9863,285.1278,0,U,47797,999,29617,-.60768E-5,-.554E-5,0
STARLINK-2379,2021-018M,2026-07-15T18:07:03.968256,15.31709039,.0001014,53.1597,3.2715,84.4138,275.6979,0,U,47798,999,29638,.13781E-4,.63E-6,0
STARLINK-2380,2021-018N,2026-07-15T10:41:48.049728,15.31702610,.00013889,53.1598,357.7138,61.1248,298.9893,0,U,47799,999,29643,.7214725E-4,.1874E-4,0
STARLINK-2381,2021-018P,2026-07-15T18:20:28.927680,15.31700269,.0001115,53.1616,3.1414,92.7968,267.3161,0,U,47800,999,29638,.50514E-4,.1203E-4,0
STARLINK-2383,2021-018R,2026-07-15T19:20:19.321152,15.31697254,.0001154,53.1611,19.7494,96.1768,263.9365,0,U,47802,999,29617,.26625E-4,.461E-5,0
STARLINK-2385,2021-018T,2026-07-15T19:38:20.103072,15.31697128,.0001106,53.1604,354.0089,84.9653,275.1474,0,U,47804,999,29652,.131E-4,.41E-6,0
STARLINK-2386,2021-018U,2026-07-15T18:08:53.863872,15.24973294,.0002545,53.0869,7.8523,198.6716,161.4189,0,U,47805,999,29631,.11507E-2,.28842E-3,0
STARLINK-2387,2021-018V,2026-07-15T18:15:29.351232,15.31695670,.0001011,53.1590,7.0794,109.7232,250.3878,0,U,47806,999,29640,.7709E-4,.2028E-4,0
STARLINK-2388,2021-018W,2026-07-15T18:12:17.646048,15.31701626,.0001231,53.1601,340.8101,88.9818,271.1324,0,U,47807,999,29670,.50904E-4,.1215E-4,0
STARLINK-2389,2021-018X,2026-07-15T18:01:31.850112,15.31698784,.0001139,53.1615,6.7876,86.4202,273.6929,0,U,47808,999,29640,.69596E-4,.1795E-4,0
STARLINK-2391,2021-018Z,2026-07-15T18:46:43.963392,15.31698341,.0001388,53.1617,19.7058,73.8478,286.2676,0,U,47810,999,29622,.12941E-4,.36E-6,0
STARLINK-2395,2021-018AD,2026-07-15T18:35:35.738016,15.31699816,.0001137,53.1600,6.8541,95.2876,264.8255,0,U,47814,999,29641,.42938E-4,.968E-5,0
STARLINK-2396,2021-018AE,2026-07-15T18:28:51.583008,15.31701094,.0001317,53.1593,6.7485,81.6560,278.4591,0,U,47815,999,29634,.19019E-3,.5541E-4,0
STARLINK-2399,2021-018AF,2026-07-15T18:40:58.913760,15.31701722,.0001077,53.1608,22.2040,84.3136,275.7989,0,U,47816,999,29611,.45703E-4,.1053E-4,0
STARLINK-2400,2021-018AG,2026-07-15T19:09:13.032000,15.31695218,.0001098,53.1608,7.0547,78.7767,281.3358,0,U,47817,999,29634,.28289E-4,.513E-5,0
STARLINK-2402,2021-018AJ,2026-07-15T19:02:28.876128,15.31699804,.0001119,53.1611,6.9893,91.9395,268.1735,0,U,47819,999,29641,.33595E-4,.678E-5,0
STARLINK-2406,2021-018AL,2026-07-15T17:41:54.610368,15.31687193,.0001021,53.1596,7.1228,60.8703,299.2400,0,U,47821,999,29634,-.75067E-6,-.388E-5,0
STARLINK-2407,2021-018AM,2026-07-15T19:00:04.570848,15.31701974,.0001214,53.1600,19.2430,83.6799,276.4341,0,U,47822,999,29618,.28219E-4,.511E-5,0
STARLINK-2408,2021-018AN,2026-07-15T12:18:24.407136,15.31696239,.00014807,53.1621,23.3153,73.4976,286.6188,0,U,47823,999,29608,.34445408E-4,.704E-5,0
STARLINK-2409,2021-018AP,2026-07-14T20:18:18.700992,15.31700221,.00012584,53.1591,27.0829,88.3501,271.7645,0,U,47824,999,29596,-.26227476E-4,-.1179E-4,0
STARLINK-2410,2021-018AQ,2026-07-15T18:22:10.687008,15.31699855,.0001288,53.1620,6.9161,90.2677,269.8472,0,U,47825,999,29635,.54154E-4,.1316E-4,0
STARLINK-2411,2021-018AR,2026-07-15T18:02:31.939584,15.31700789,.000113,53.1615,9.5275,101.9731,258.1397,0,U,47826,999,29631,.24641E-4,.4E-5,0
STARLINK-2413,2021-018AS,2026-07-15T10:51:59.068800,15.31700939,.00011383,53.1620,8.1290,97.9750,262.1381,0,U,47827,999,29635,.19255947E-4,.233E-5,0
STARLINK-2415,2021-018AT,2026-07-15T19:06:46.958976,15.31704023,.0001261,53.1596,19.2361,98.1102,262.0042,0,U,47828,999,29618,.40915E-4,.905E-5,0
STARLINK-2419,2021-018AV,2026-07-15T18:40:00.213600,15.31697234,.0001122,53.1609,19.6380,104.3042,255.8084,0,U,47830,999,29616,.43858E-4,.996E-5,0
STARLINK-2420,2021-018AW,2026-07-15T17:48:07.130016,15.31695922,.0001268,53.1614,6.8847,79.7574,280.3571,0,U,47831,999,29638,.25958E-4,.44E-5,0
STARLINK-2422,2021-018AX,2026-07-15T17:49:10.418016,15.31696313,.0001358,53.1613,9.8948,91.0803,269.0354,0,U,47832,999,29630,.30396E-4,.578E-5,0
STARLINK-2423,2021-018AY,2026-07-15T18:46:21.973728,15.31705653,.0001537,53.1609,20.3062,152.4127,207.6956,0,U,47833,999,29620,-.18498E-4,-.939E-5,0
STARLINK-2424,2021-018AZ,2026-07-15T10:52:56.348544,15.31699763,.00014175,53.1595,10.5818,76.8826,283.2333,0,U,47834,999,29632,.2432963E-4,.39E-5,0
STARLINK-2426,2021-018BB,2026-07-15T18:49:26.436000,15.31700724,.000109,53.1601,8.9922,79.5380,280.5744,0,U,47836,999,29632,.93875E-5,-.74E-6,0
STARLINK-2427,2021-018BC,2026-07-15T18:20:57.494112,15.31701389,.0001005,53.1613,3.1076,93.4384,266.6732,0,U,47837,999,29639,.56098E-4,.1376E-4,0
STARLINK-2429,2021-018BD,2026-07-15T18:09:19.179072,15.31698274,.0001107,53.1614,9.8693,70.2569,289.8552,0,U,47838,999,29630,.18905E-4,.222E-5,0
STARLINK-2431,2021-018BE,2026-07-15T18:39:11.367360,15.31699433,.0001168,53.1591,340.9860,67.0965,293.0159,0,U,47839,999,29672,-.11339E-4,-.717E-5,0
STARLINK-2432,2021-018BF,2026-07-15T10:37:25.074048,15.31702180,.00010539,53.1607,4.7991,107.1316,252.9801,0,U,47840,999,29633,.62373826E-4,.1571E-4,0
STARLINK-2433,2021-018BG,2026-07-15T18:00:20.983104,15.31704162,.0001011,53.1616,3.2127,87.0571,273.0546,0,U,47841,999,29638,.35614E-4,.74E-5,0
STARLINK-2435,2021-018BJ,2026-07-15T19:33:38.427840,15.31701034,.0001478,53.1618,19.1442,66.0843,294.0313,0,U,47843,999,29619,.44897E-4,.1028E-4,0
STARLINK-2446,2021-018BK,2026-07-15T19:16:19.187040,15.34458136,.0002129,53.1599,9.4808,279.9797,80.0965,0,U,47844,999,29631,.84773E-3,.28428E-3,0
STARLINK-2453,2021-018BL,2026-07-15T19:27:31.372128,15.31752495,.0001385,53.1619,22.4969,119.8029,240.3110,0,U,47845,999,29612,-.16663E-3,-.5541E-4,0
STARLINK-2280,2021-021B,2026-07-15T19:14:03.890688,15.31726153,.000137,53.1601,22.2308,122.8065,237.3069,0,U,47861,999,29602,.63414E-4,.1605E-4,0
STARLINK-2291,2021-021C,2026-07-15T19:21:09.883296,15.79681826,.0000684,53.1563,3.5960,332.2163,27.8822,0,U,47862,999,29627,.57492E-3,.108114E-2,0
STARLINK-2326,2021-021L,2026-07-15T19:15:37.189728,15.31701637,.0001205,53.1596,44.8881,90.5246,269.5893,0,U,47870,999,29559,.70819E-4,.1833E-4,0
STARLINK-2329,2021-021P,2026-07-15T18:33:14.562144,15.31700305,.000114,53.1599,19.4647,90.7915,269.3217,0,U,47873,999,29604,-.47323E-5,-.512E-5,0
STARLINK-2330,2021-021Q,2026-07-15T13:17:35.147328,15.40424953,.00011672,53.1441,338.6828,170.9813,189.1213,0,U,47874,999,29659,.10486605E-2,.42913E-3,0
STARLINK-2336,2021-021V,2026-07-15T19:05:49.250688,15.80051830,.000158,53.1526,25.1533,286.4892,73.5957,0,U,47879,999,29614,.46206E-3,.88035E-3,0
STARLINK-2342,2021-021Z,2026-07-15T22:00:01.998720,15.93342510,.0009141,53.1507,2.8385,294.7754,170.8709,0,U,47883,999,606,.89275E-3,.323444E-2,.51331E-4
STARLINK-2343,2021-021AA,2026-07-15T19:22:20.040096,15.31701699,.0001031,53.1602,44.9008,85.2203,274.8916,0,U,47884,999,29568,.1227E-4,.16E-6,0
STARLINK-2346,2021-021AD,2026-07-15T19:42:27.835200,15.31698615,.0001239,53.1610,44.7966,93.5071,266.6072,0,U,47887,999,29569,.22269E-4,.326E-5,0
STARLINK-2354,2021-021AL,2026-07-15T20:02:56.844960,15.36397438,.000078,53.1498,30.7997,222.7452,137.3491,0,U,47894,999,29583,.85544E-3,.3055E-3,0
